{
  "type": "FeatureCollection",
  "features": [
    {
      "type": "Feature",
      "properties": {
        "norad_id": 34121,
        "name": "COSMOS 2251 DEB",
        "group": "cosmos-2251-debris",
        "lat": -7.012415083225121,
        "lon": 88.01393899729001,
        "alt_km": 829.7635514761259,
        "timestamp": "2025-12-16T21:38:57.569007+00:00",
        "meta_object_name": "COSMOS 2251 DEB",
        "meta_object_id": "1993-036KS",
        "meta_epoch": "2025-12-16T08:09:18.345888",
        "meta_mean_motion": 13.91943115,
        "meta_eccentricity": 0.02404728,
        "meta_inclination": 73.9931,
        "meta_ra_of_asc_node": 91.0005,
        "meta_arg_of_pericenter": 295.6845,
        "meta_mean_anomaly": 118.4154,
        "meta_ephemeris_type": 0,
        "meta_classification_type": "U",
        "meta_norad_cat_id": 34121,
        "meta_element_set_no": 999,
        "meta_rev_at_epoch": 85175,
        "meta_bstar": 0.00098677314,
        "meta_mean_motion_dot": 1.568e-05,
        "meta_mean_motion_ddot": 0,
        "tle_line1": "1 34121U 93036KS  25350.33979567  .00001568  00000+0  98677-3 0  9995",
        "tle_line2": "2 34121  73.9931  91.0005 0240472 295.6845 118.4154 13.91943115851755"
      },
      "geometry": {
        "type": "Point",
        "coordinates": [
          88.01393899729001,
          -7.012415083225121
        ]
      }
    },
    {
      "type": "Feature",
      "properties": {
        "norad_id": 34122,
        "name": "COSMOS 2251 DEB",
        "group": "cosmos-2251-debris",
        "lat": -68.0874936124808,
        "lon": -24.004522669516973,
        "alt_km": 705.1304483216209,
        "timestamp": "2025-12-16T21:38:57.569018+00:00",
        "meta_object_name": "COSMOS 2251 DEB",
        "meta_object_id": "1993-036KT",
        "meta_epoch": "2025-12-16T07:29:53.009376",
        "meta_mean_motion": 14.65095777,
        "meta_eccentricity": 0.00845136,
        "meta_inclination": 74.0357,
        "meta_ra_of_asc_node": 111.7603,
        "meta_arg_of_pericenter": 7.608,
        "meta_mean_anomaly": 19.3967,
        "meta_ephemeris_type": 0,
        "meta_classification_type": "U",
        "meta_norad_cat_id": 34122,
        "meta_element_set_no": 999,
        "meta_rev_at_epoch": 88737,
        "meta_bstar": 0.00078671724,
        "meta_mean_motion_dot": 4.423e-05,
        "meta_mean_motion_ddot": 0,
        "tle_line1": "1 34122U 93036KT  25350.31241909  .00004423  00000+0  78672-3 0  9992",
        "tle_line2": "2 34122  74.0357 111.7603 0084513   7.6080  19.3967 14.65095777887370"
      },
      "geometry": {
        "type": "Point",
        "coordinates": [
          -24.004522669516973,
          -68.0874936124808
        ]
      }
    },
    {
      "type": "Feature",
      "properties": {
        "norad_id": 34127,
        "name": "COSMOS 2251 DEB",
        "group": "cosmos-2251-debris",
        "lat": 24.29259524007516,
        "lon": 43.694719829942606,
        "alt_km": 856.4815770574469,
        "timestamp": "2025-12-16T21:38:57.569028+00:00",
        "meta_object_name": "COSMOS 2251 DEB",
        "meta_object_id": "1993-036KY",
        "meta_epoch": "2025-12-16T05:01:46.854048",
        "meta_mean_motion": 14.31578927,
        "meta_eccentricity": 0.01149876,
        "meta_inclination": 74.18,
        "meta_ra_of_asc_node": 37.593,
        "meta_arg_of_pericenter": 236.9855,
        "meta_mean_anomaly": 180.3529,
        "meta_ephemeris_type": 0,
        "meta_classification_type": "U",
        "meta_norad_cat_id": 34127,
        "meta_element_set_no": 999,
        "meta_rev_at_epoch": 86821,
        "meta_bstar": 0.0012084552,
        "meta_mean_motion_dot": 3.434e-05,
        "meta_mean_motion_ddot": 0,
        "tle_line1": "1 34127U 93036KY  25350.20957007  .00003434  00000+0  12085-2 0  9994",
        "tle_line2": "2 34127  74.1800  37.5930 0114987 236.9855 180.3529 14.31578927868214"
      },
      "geometry": {
        "type": "Point",
        "coordinates": [
          43.694719829942606,
          24.29259524007516
        ]
      }
    },
    {
      "type": "Feature",
      "properties": {
        "norad_id": 34128,
        "name": "COSMOS 2251 DEB",
        "group": "cosmos-2251-debris",
        "lat": -13.74105260847837,
        "lon": 112.25109920774095,
        "alt_km": 583.4021157543038,
        "timestamp": "2025-12-16T21:38:57.569039+00:00",
        "meta_object_name": "COSMOS 2251 DEB",
        "meta_object_id": "1993-036KZ",
        "meta_epoch": "2025-12-16T05:19:41.092032",
        "meta_mean_motion": 15.01306769,
        "meta_eccentricity": 0.00259858,
        "meta_inclination": 73.9995,
        "meta_ra_of_asc_node": 289.6148,
        "meta_arg_of_pericenter": 40.926,
        "meta_mean_anomaly": 79.1955,
        "meta_ephemeris_type": 0,
        "meta_classification_type": "U",
        "meta_norad_cat_id": 34128,
        "meta_element_set_no": 999,
        "meta_rev_at_epoch": 89219,
        "meta_bstar": 0.0012140584,
        "meta_mean_motion_dot": 0.00015733,
        "meta_mean_motion_ddot": 0,
        "tle_line1": "1 34128U 93036KZ  25350.22200338  .00015733  00000+0  12141-2 0  9993",
        "tle_line2": "2 34128  73.9995 289.6148 0025985  40.9260  79.1955 15.01306769892193"
      },
      "geometry": {
        "type": "Point",
        "coordinates": [
          112.25109920774095,
          -13.74105260847837
        ]
      }
    },
    {
      "type": "Feature",
      "properties": {
        "norad_id": 34129,
        "name": "COSMOS 2251 DEB",
        "group": "cosmos-2251-debris",
        "lat": 74.02410901490872,
        "lon": 61.813144140497506,
        "alt_km": 616.9665484673715,
        "timestamp": "2025-12-16T21:38:57.569050+00:00",
        "meta_object_name": "COSMOS 2251 DEB",
        "meta_object_id": "1993-036LA",
        "meta_epoch": "2025-12-16T08:13:47.067168",
        "meta_mean_motion": 14.75801292,
        "meta_eccentricity": 0.00330759,
        "meta_inclination": 74.0347,
        "meta_ra_of_asc_node": 332.4753,
        "meta_arg_of_pericenter": 52.805,
        "meta_mean_anomaly": 307.6134,
        "meta_ephemeris_type": 0,
        "meta_classification_type": "U",
        "meta_norad_cat_id": 34129,
        "meta_element_set_no": 999,
        "meta_rev_at_epoch": 61351,
        "meta_bstar": 0.0009628606,
        "meta_mean_motion_dot": 6.631e-05,
        "meta_mean_motion_ddot": 0,
        "tle_line1": "1 34129U 93036LA  25350.34290587  .00006631  00000+0  96286-3 0  9992",
        "tle_line2": "2 34129  74.0347 332.4753 0033075  52.8050 307.6134 14.75801292613510"
      },
      "geometry": {
        "type": "Point",
        "coordinates": [
          61.813144140497506,
          74.02410901490872
        ]
      }
    },
    {
      "type": "Feature",
      "properties": {
        "norad_id": 34136,
        "name": "COSMOS 2251 DEB",
        "group": "cosmos-2251-debris",
        "lat": -47.95882984913806,
        "lon": 15.895957211780534,
        "alt_km": 688.8705452927843,
        "timestamp": "2025-12-16T21:38:57.569060+00:00",
        "meta_object_name": "COSMOS 2251 DEB",
        "meta_object_id": "1993-036LH",
        "meta_epoch": "2025-12-16T05:58:03.149184",
        "meta_mean_motion": 14.80106261,
        "meta_eccentricity": 0.0085527,
        "meta_inclination": 74.0211,
        "meta_ra_of_asc_node": 35.7124,
        "meta_arg_of_pericenter": 157.7414,
        "meta_mean_anomaly": 271.1583,
        "meta_ephemeris_type": 0,
        "meta_classification_type": "U",
        "meta_norad_cat_id": 34136,
        "meta_element_set_no": 999,
        "meta_rev_at_epoch": 90062,
        "meta_bstar": 0.00028441998,
        "meta_mean_motion_dot": 2.259e-05,
        "meta_mean_motion_ddot": 0,
        "tle_line1": "1 34136U 93036LH  25350.24864756  .00002259  00000+0  28442-3 0  9995",
        "tle_line2": "2 34136  74.0211  35.7124 0085527 157.7414 271.1583 14.80106261900625"
      },
      "geometry": {
        "type": "Point",
        "coordinates": [
          15.895957211780534,
          -47.95882984913806
        ]
      }
    },
    {
      "type": "Feature",
      "properties": {
        "norad_id": 34139,
        "name": "COSMOS 2251 DEB",
        "group": "cosmos-2251-debris",
        "lat": 69.0447854021451,
        "lon": -65.47725980543886,
        "alt_km": 703.7872266497761,
        "timestamp": "2025-12-16T21:38:57.569071+00:00",
        "meta_object_name": "COSMOS 2251 DEB",
        "meta_object_id": "1993-036LL",
        "meta_epoch": "2025-12-16T03:53:24.901728",
        "meta_mean_motion": 14.59113242,
        "meta_eccentricity": 0.00424881,
        "meta_inclination": 74.0309,
        "meta_ra_of_asc_node": 247.5397,
        "meta_arg_of_pericenter": 318.1142,
        "meta_mean_anomaly": 192.4619,
        "meta_ephemeris_type": 0,
        "meta_classification_type": "U",
        "meta_norad_cat_id": 34139,
        "meta_element_set_no": 999,
        "meta_rev_at_epoch": 88199,
        "meta_bstar": 0.00095149799,
        "meta_mean_motion_dot": 4.507e-05,
        "meta_mean_motion_ddot": 0,
        "tle_line1": "1 34139U 93036LL  25350.16209377  .00004507  00000+0  95150-3 0  9999",
        "tle_line2": "2 34139  74.0309 247.5397 0042488 318.1142 192.4619 14.59113242881997"
      },
      "geometry": {
        "type": "Point",
        "coordinates": [
          -65.47725980543886,
          69.0447854021451
        ]
      }
    }
  ]
}